[{"OBJECT_NAME":"CS2","OBJECT_ID":"2021-088C","EPOCH":"2026-03-09T17:38:11.846112","MEAN_MOTION":15.3325593,"ECCENTRICITY":0.00116375,"INCLINATION":97.3928,"RA_OF_ASC_NODE":134.2907,"ARG_OF_PERICENTER":82.3491,"MEAN_ANOMALY":277.9072,"EPHEMERIS_TYPE":0,"CLASSIFICATION_TYPE":"U","NORAD_CAT_ID":49262,"ELEMENT_SET_NO":999,"REV_AT_EPOCH":24526,"BSTAR":0.0005617759,"MEAN_MOTION_DOT":0.00018033,"MEAN_MOTION_DDOT":0},{"OBJECT_NAME":"STARLINK-32340","OBJECT_ID":"2024-158U","EPOCH":"2026-03-09T09:31:32.202336","MEAN_MOTION":15.30171823,"ECCENTRICITY":0.00013073,"INCLINATION":53.1614,"RA_OF_ASC_NODE":67.0145,"ARG_OF_PERICENTER":89.3267,"MEAN_ANOMALY":270.7884,"EPHEMERIS_TYPE":0,"CLASSIFICATION_TYPE":"U","NORAD_CAT_ID":61008,"ELEMENT_SET_NO":999,"REV_AT_EPOCH":8553,"BSTAR":-7.8110972e-5,"MEAN_MOTION_DOT":-2.67e-5,"MEAN_MOTION_DDOT":0}]
